<?xml version="1.0" encoding="UTF-8"?>
<ndm xmlns:xsi="http://www.w3.org/2001/XMLSchema-instance" xsi:noNamespaceSchemaLocation="https://sanaregistry.org/r/ndmxml_unqualified/ndmxml-2.0.0-master-2.0.xsd">
<omm id="CCSDS_OMM_VERS" version="2.0">
<header><CREATION_DATE/><ORIGINATOR/></header><body><segment><metadata><OBJECT_NAME>ORBCOMM-X</OBJECT_NAME><OBJECT_ID>1991-050C</OBJECT_ID><CENTER_NAME>EARTH</CENTER_NAME><REF_FRAME>TEME</REF_FRAME><TIME_SYSTEM>UTC</TIME_SYSTEM><MEAN_ELEMENT_THEORY>SGP4</MEAN_ELEMENT_THEORY></metadata><data><meanElements><EPOCH>2025-01-12T05:46:07.173984</EPOCH><MEAN_MOTION>14.43032639</MEAN_MOTION><ECCENTRICITY>.0002651</ECCENTRICITY><INCLINATION>98.3654</INCLINATION><RA_OF_ASC_NODE>81.8891</RA_OF_ASC_NODE><ARG_OF_PERICENTER>309.1114</ARG_OF_PERICENTER><MEAN_ANOMALY>50.9840</MEAN_ANOMALY></meanElements><tleParameters><EPHEMERIS_TYPE>0</EPHEMERIS_TYPE><CLASSIFICATION_TYPE>U</CLASSIFICATION_TYPE><NORAD_CAT_ID>21576</NORAD_CAT_ID><ELEMENT_SET_NO>999</ELEMENT_SET_NO><REV_AT_EPOCH>75962</REV_AT_EPOCH><BSTAR>.1861E-3</BSTAR><MEAN_MOTION_DOT>.58E-5</MEAN_MOTION_DOT><MEAN_MOTION_DDOT>0</MEAN_MOTION_DDOT></tleParameters></data></segment></body></omm>
<omm id="CCSDS_OMM_VERS" version="2.0">
<header><CREATION_DATE/><ORIGINATOR/></header><body><segment><metadata><OBJECT_NAME>ORBCOMM FM01</OBJECT_NAME><OBJECT_ID>1995-017A</OBJECT_ID><CENTER_NAME>EARTH</CENTER_NAME><REF_FRAME>TEME</REF_FRAME><TIME_SYSTEM>UTC</TIME_SYSTEM><MEAN_ELEMENT_THEORY>SGP4</MEAN_ELEMENT_THEORY></metadata><data><meanElements><EPOCH>2025-01-12T13:53:43.745856</EPOCH><MEAN_MOTION>14.86733896</MEAN_MOTION><ECCENTRICITY>.0005531</ECCENTRICITY><INCLINATION>69.9656</INCLINATION><RA_OF_ASC_NODE>101.2835</RA_OF_ASC_NODE><ARG_OF_PERICENTER>244.8802</ARG_OF_PERICENTER><MEAN_ANOMALY>115.1777</MEAN_ANOMALY></meanElements><tleParameters><EPHEMERIS_TYPE>0</EPHEMERIS_TYPE><CLASSIFICATION_TYPE>U</CLASSIFICATION_TYPE><NORAD_CAT_ID>23545</NORAD_CAT_ID><ELEMENT_SET_NO>999</ELEMENT_SET_NO><REV_AT_EPOCH>58935</REV_AT_EPOCH><BSTAR>.96277E-3</BSTAR><MEAN_MOTION_DOT>.8509E-4</MEAN_MOTION_DOT><MEAN_MOTION_DDOT>0</MEAN_MOTION_DDOT></tleParameters></data></segment></body></omm>
<omm id="CCSDS_OMM_VERS" version="2.0">
<header><CREATION_DATE/><ORIGINATOR/></header><body><segment><metadata><OBJECT_NAME>ORBCOMM FM02</OBJECT_NAME><OBJECT_ID>1995-017B</OBJECT_ID><CENTER_NAME>EARTH</CENTER_NAME><REF_FRAME>TEME</REF_FRAME><TIME_SYSTEM>UTC</TIME_SYSTEM><MEAN_ELEMENT_THEORY>SGP4</MEAN_ELEMENT_THEORY></metadata><data><meanElements><EPOCH>2025-01-12T13:53:18.290688</EPOCH><MEAN_MOTION>14.86938106</MEAN_MOTION><ECCENTRICITY>.0006598</ECCENTRICITY><INCLINATION>69.9670</INCLINATION><RA_OF_ASC_NODE>120.9768</RA_OF_ASC_NODE><ARG_OF_PERICENTER>232.3308</ARG_OF_PERICENTER><MEAN_ANOMALY>127.7247</MEAN_ANOMALY></meanElements><tleParameters><EPHEMERIS_TYPE>0</EPHEMERIS_TYPE><CLASSIFICATION_TYPE>U</CLASSIFICATION_TYPE><NORAD_CAT_ID>23546</NORAD_CAT_ID><ELEMENT_SET_NO>999</ELEMENT_SET_NO><REV_AT_EPOCH>58899</REV_AT_EPOCH><BSTAR>.13141E-2</BSTAR><MEAN_MOTION_DOT>.1171E-3</MEAN_MOTION_DOT><MEAN_MOTION_DDOT>0</MEAN_MOTION_DDOT></tleParameters></data></segment></body></omm>
<omm id="CCSDS_OMM_VERS" version="2.0">
<header><CREATION_DATE/><ORIGINATOR/></header><body><segment><metadata><OBJECT_NAME>ORBCOMM FM08</OBJECT_NAME><OBJECT_ID>1997-084A</OBJECT_ID><CENTER_NAME>EARTH</CENTER_NAME><REF_FRAME>TEME</REF_FRAME><TIME_SYSTEM>UTC</TIME_SYSTEM><MEAN_ELEMENT_THEORY>SGP4</MEAN_ELEMENT_THEORY></metadata><data><meanElements><EPOCH>2025-01-12T09:20:38.047200</EPOCH><MEAN_MOTION>14.44820684</MEAN_MOTION><ECCENTRICITY>.0006164</ECCENTRICITY><INCLINATION>45.0148</INCLINATION><RA_OF_ASC_NODE>35.2614</RA_OF_ASC_NODE><ARG_OF_PERICENTER>203.2454</ARG_OF_PERICENTER><MEAN_ANOMALY>156.8119</MEAN_ANOMALY></meanElements><tleParameters><EPHEMERIS_TYPE>0</EPHEMERIS_TYPE><CLASSIFICATION_TYPE>U</CLASSIFICATION_TYPE><NORAD_CAT_ID>25112</NORAD_CAT_ID><ELEMENT_SET_NO>999</ELEMENT_SET_NO><REV_AT_EPOCH>41883</REV_AT_EPOCH><BSTAR>.84706E-3</BSTAR><MEAN_MOTION_DOT>.283E-4</MEAN_MOTION_DOT><MEAN_MOTION_DDOT>0</MEAN_MOTION_DDOT></tleParameters></data></segment></body></omm>
<omm id="CCSDS_OMM_VERS" version="2.0">
<header><CREATION_DATE/><ORIGINATOR/></header><body><segment><metadata><OBJECT_NAME>ORBCOMM FM10</OBJECT_NAME><OBJECT_ID>1997-084B</OBJECT_ID><CENTER_NAME>EARTH</CENTER_NAME><REF_FRAME>TEME</REF_FRAME><TIME_SYSTEM>UTC</TIME_SYSTEM><MEAN_ELEMENT_THEORY>SGP4</MEAN_ELEMENT_THEORY></metadata><data><meanElements><EPOCH>2025-01-12T13:20:33.191808</EPOCH><MEAN_MOTION>14.44643154</MEAN_MOTION><ECCENTRICITY>.0003149</ECCENTRICITY><INCLINATION>45.0161</INCLINATION><RA_OF_ASC_NODE>36.5825</RA_OF_ASC_NODE><ARG_OF_PERICENTER>177.8041</ARG_OF_PERICENTER><MEAN_ANOMALY>182.2824</MEAN_ANOMALY></meanElements><tleParameters><EPHEMERIS_TYPE>0</EPHEMERIS_TYPE><CLASSIFICATION_TYPE>U</CLASSIFICATION_TYPE><NORAD_CAT_ID>25113</NORAD_CAT_ID><ELEMENT_SET_NO>999</ELEMENT_SET_NO><REV_AT_EPOCH>59400</REV_AT_EPOCH><BSTAR>.77414E-3</BSTAR><MEAN_MOTION_DOT>.2563E-4</MEAN_MOTION_DOT><MEAN_MOTION_DDOT>0</MEAN_MOTION_DDOT></tleParameters></data></segment></body></omm>
<omm id="CCSDS_OMM_VERS" version="2.0">
<header><CREATION_DATE/><ORIGINATOR/></header><body><segment><metadata><OBJECT_NAME>ORBCOMM FM11</OBJECT_NAME><OBJECT_ID>1997-084C</OBJECT_ID><CENTER_NAME>EARTH</CENTER_NAME><REF_FRAME>TEME</REF_FRAME><TIME_SYSTEM>UTC</TIME_SYSTEM><MEAN_ELEMENT_THEORY>SGP4</MEAN_ELEMENT_THEORY></metadata><data><meanElements><EPOCH>2025-01-12T11:10:02.553312</EPOCH><MEAN_MOTION>14.44422370</MEAN_MOTION><ECCENTRICITY>.0003996</ECCENTRICITY><INCLINATION>45.0144</INCLINATION><RA_OF_ASC_NODE>37.3778</RA_OF_ASC_NODE><ARG_OF_PERICENTER>172.6399</ARG_OF_PERICENTER><MEAN_ANOMALY>187.4511</MEAN_ANOMALY></meanElements><tleParameters><EPHEMERIS_TYPE>0</EPHEMERIS_TYPE><CLASSIFICATION_TYPE>U</CLASSIFICATION_TYPE><NORAD_CAT_ID>25114</NORAD_CAT_ID><ELEMENT_SET_NO>999</ELEMENT_SET_NO><REV_AT_EPOCH>41895</REV_AT_EPOCH><BSTAR>.76915E-3</BSTAR><MEAN_MOTION_DOT>.2534E-4</MEAN_MOTION_DOT><MEAN_MOTION_DDOT>0</MEAN_MOTION_DDOT></tleParameters></data></segment></body></omm>
<omm id="CCSDS_OMM_VERS" version="2.0">
<header><CREATION_DATE/><ORIGINATOR/></header><body><segment><metadata><OBJECT_NAME>ORBCOMM FM12</OBJECT_NAME><OBJECT_ID>1997-084D</OBJECT_ID><CENTER_NAME>EARTH</CENTER_NAME><REF_FRAME>TEME</REF_FRAME><TIME_SYSTEM>UTC</TIME_SYSTEM><MEAN_ELEMENT_THEORY>SGP4</MEAN_ELEMENT_THEORY></metadata><data><meanElements><EPOCH>2025-01-12T13:37:46.255008</EPOCH><MEAN_MOTION>14.44419245</MEAN_MOTION><ECCENTRICITY>.0003025</ECCENTRICITY><INCLINATION>45.0154</INCLINATION><RA_OF_ASC_NODE>36.6473</RA_OF_ASC_NODE><ARG_OF_PERICENTER>179.8853</ARG_OF_PERICENTER><MEAN_ANOMALY>180.1999</MEAN_ANOMALY></meanElements><tleParameters><EPHEMERIS_TYPE>0</EPHEMERIS_TYPE><CLASSIFICATION_TYPE>U</CLASSIFICATION_TYPE><NORAD_CAT_ID>25115</NORAD_CAT_ID><ELEMENT_SET_NO>999</ELEMENT_SET_NO><REV_AT_EPOCH>41876</REV_AT_EPOCH><BSTAR>.70378E-3</BSTAR><MEAN_MOTION_DOT>.2306E-4</MEAN_MOTION_DOT><MEAN_MOTION_DDOT>0</MEAN_MOTION_DDOT></tleParameters></data></segment></body></omm>
<omm id="CCSDS_OMM_VERS" version="2.0">
<header><CREATION_DATE/><ORIGINATOR/></header><body><segment><metadata><OBJECT_NAME>ORBCOMM FM09</OBJECT_NAME><OBJECT_ID>1997-084E</OBJECT_ID><CENTER_NAME>EARTH</CENTER_NAME><REF_FRAME>TEME</REF_FRAME><TIME_SYSTEM>UTC</TIME_SYSTEM><MEAN_ELEMENT_THEORY>SGP4</MEAN_ELEMENT_THEORY></metadata><data><meanElements><EPOCH>2025-01-12T12:27:22.553856</EPOCH><MEAN_MOTION>14.44326514</MEAN_MOTION><ECCENTRICITY>.0003702</ECCENTRICITY><INCLINATION>45.0157</INCLINATION><RA_OF_ASC_NODE>37.6748</RA_OF_ASC_NODE><ARG_OF_PERICENTER>151.0194</ARG_OF_PERICENTER><MEAN_ANOMALY>209.0863</MEAN_ANOMALY></meanElements><tleParameters><EPHEMERIS_TYPE>0</EPHEMERIS_TYPE><CLASSIFICATION_TYPE>U</CLASSIFICATION_TYPE><NORAD_CAT_ID>25116</NORAD_CAT_ID><ELEMENT_SET_NO>999</ELEMENT_SET_NO><REV_AT_EPOCH>41896</REV_AT_EPOCH><BSTAR>.7309E-3</BSTAR><MEAN_MOTION_DOT>.2396E-4</MEAN_MOTION_DOT><MEAN_MOTION_DDOT>0</MEAN_MOTION_DDOT></tleParameters></data></segment></body></omm>

</ndm>
