ORBCOMM-X               
1 21576U 91050C   25012.24036081  .00000580  00000+0  18610-3 0  9991
2 21576  98.3654  81.8891 0002651 309.1114  50.9840 14.43032639759626
ORBCOMM FM01            
1 23545U 95017A   25012.57897854  .00008509  00000+0  96277-3 0  9999
2 23545  69.9656 101.2835 0005531 244.8802 115.1777 14.86733896589358
ORBCOMM FM02            
1 23546U 95017B   25012.57868392  .00011710  00000+0  13141-2 0  9991
2 23546  69.9670 120.9768 0006598 232.3308 127.7247 14.86938106588996
ORBCOMM FM08            
1 25112U 97084A   25012.38932925  .00002830  00000+0  84706-3 0  9990
2 25112  45.0148  35.2614 0006164 203.2454 156.8119 14.44820684418839
ORBCOMM FM10            
1 25113U 97084B   25012.55593972  .00002563  00000+0  77414-3 0  9996
2 25113  45.0161  36.5825 0003149 177.8041 182.2824 14.44643154419013
ORBCOMM FM11            
1 25114U 97084C   25012.46530733  .00002534  00000+0  76915-3 0  9996
2 25114  45.0144  37.3778 0003996 172.6399 187.4511 14.44422370418957
ORBCOMM FM12            
1 25115U 97084D   25012.56789647  .00002306  00000+0  70378-3 0  9992
2 25115  45.0154  36.6473 0003025 179.8853 180.1999 14.44419245418766
ORBCOMM FM09            
1 25116U 97084E   25012.51901104  .00002396  00000+0  73090-3 0  9995
2 25116  45.0157  37.6748 0003702 151.0194 209.0863 14.44326514418967
